{"type": "FeatureCollection", "features": [ {"type": "Feature", "properties": {"norad_id": 66979, "name": "STARLINK-36107", "group": "last-30-days", "lat": 27.953318416856327, "lon": 131.54253828184528, "alt_km": 355.46063626360865, "timestamp": "2025-12-24T05:51:18.327959+00:00", "meta": {"OBJECT_NAME": "STARLINK-36107", "OBJECT_ID": "2025-288W", "EPOCH": "2025-12-23T22:00:01.999584", "MEAN_MOTION": 15.71239899, "ECCENTRICITY": 0.00016873, "INCLINATION": 43.0005, "RA_OF_ASC_NODE": 98.8018, "ARG_OF_PERICENTER": 281.7442, "MEAN_ANOMALY": 69.1105, "EPHEMERIS_TYPE": 0, "CLASSIFICATION_TYPE": "U", "NORAD_CAT_ID": 66979, "ELEMENT_SET_NO": 999, "REV_AT_EPOCH": 362, "BSTAR": -0.016965611, "MEAN_MOTION_DOT": -0.01958629, "MEAN_MOTION_DDOT": 0}, "tle": {"line1": "1 66979U 25288W   25357.91668981 -.01958629  00000+0 -16966-1 0  9992", "line2": "2 66979  43.0005  98.8018 0001687 281.7442  69.1105 15.71239899  3622"}}, "geometry": {"type": "Point", "coordinates": [131.54253828184528, 27.953318416856327]}}, {"type": "Feature", "properties": {"norad_id": 66980, "name": "STARLINK-36086", "group": "last-30-days", "lat": 29.01598050838188, "lon": 133.3534853352594, "alt_km": 355.35255848172255, "timestamp": "2025-12-24T05:51:18.327969+00:00", "meta": {"OBJECT_NAME": "STARLINK-36086", "OBJECT_ID": "2025-288X", "EPOCH": "2025-12-23T22:00:01.999584", "MEAN_MOTION": 15.71239601, "ECCENTRICITY": 0.00015897, "INCLINATION": 43.0006, "RA_OF_ASC_NODE": 98.7968, "ARG_OF_PERICENTER": 278.8558, "MEAN_ANOMALY": 73.9161, "EPHEMERIS_TYPE": 0, "CLASSIFICATION_TYPE": "U", "NORAD_CAT_ID": 66980, "ELEMENT_SET_NO": 999, "REV_AT_EPOCH": 362, "BSTAR": -0.016954955, "MEAN_MOTION_DOT": -0.0195744, "MEAN_MOTION_DDOT": 0}, "tle": {"line1": "1 66980U 25288X   25357.91668981 -.01957440  00000+0 -16955-1 0  9992", "line2": "2 66980  43.0006  98.7968 0001589 278.8558  73.9161 15.71239601  3620"}}, "geometry": {"type": "Point", "coordinates": [133.3534853352594, 29.01598050838188]}}, {"type": "Feature", "properties": {"norad_id": 66981, "name": "STARLINK-36142", "group": "last-30-days", "lat": 30.054093202740663, "lon": 135.2027535520158, "alt_km": 355.1970479979109, "timestamp": "2025-12-24T05:51:18.327980+00:00", "meta": {"OBJECT_NAME": "STARLINK-36142", "OBJECT_ID": "2025-288Y", "EPOCH": "2025-12-23T22:00:01.999584", "MEAN_MOTION": 15.71236459, "ECCENTRICITY": 0.00015774, "INCLINATION": 43.0006, "RA_OF_ASC_NODE": 98.792, "ARG_OF_PERICENTER": 279.6887, "MEAN_ANOMALY": 75.0014, "EPHEMERIS_TYPE": 0, "CLASSIFICATION_TYPE": "U", "NORAD_CAT_ID": 66981, "ELEMENT_SET_NO": 999, "REV_AT_EPOCH": 362, "BSTAR": -0.016915514, "MEAN_MOTION_DOT": -0.01953173, "MEAN_MOTION_DDOT": 0}, "tle": {"line1": "1 66981U 25288Y   25357.91668981 -.01953173  00000+0 -16916-1 0  9999", "line2": "2 66981  43.0006  98.7920 0001577 279.6887  75.0014 15.71236459  3628"}}, "geometry": {"type": "Point", "coordinates": [135.2027535520158, 30.054093202740663]}}, {"type": "Feature", "properties": {"norad_id": 66982, "name": "STARLINK-36113", "group": "last-30-days", "lat": 31.06676291502065, "lon": 137.0927137189069, "alt_km": 355.13164065022465, "timestamp": "2025-12-24T05:51:18.327991+00:00", "meta": {"OBJECT_NAME": "STARLINK-36113", "OBJECT_ID": "2025-288Z", "EPOCH": "2025-12-23T22:00:01.999584", "MEAN_MOTION": 15.71243872, "ECCENTRICITY": 0.00015828, "INCLINATION": 43.0006, "RA_OF_ASC_NODE": 98.787, "ARG_OF_PERICENTER": 276.9446, "MEAN_ANOMALY": 79.6617, "EPHEMERIS_TYPE": 0, "CLASSIFICATION_TYPE": "U", "NORAD_CAT_ID": 66982, "ELEMENT_SET_NO": 999, "REV_AT_EPOCH": 362, "BSTAR": -0.017028323, "MEAN_MOTION_DOT": -0.01965234, "MEAN_MOTION_DDOT": 0}, "tle": {"line1": "1 66982U 25288Z   25357.91668981 -.01965234  00000+0 -17028-1 0  9996", "line2": "2 66982  43.0006  98.7870 0001582 276.9446  79.6617 15.71243872  3626"}}, "geometry": {"type": "Point", "coordinates": [137.0927137189069, 31.06676291502065]}}, {"type": "Feature", "properties": {"norad_id": 66983, "name": "STARLINK-36145", "group": "last-30-days", "lat": 33.00752994645109, "lon": 140.99863805317545, "alt_km": 354.66471263459607, "timestamp": "2025-12-24T05:51:18.328000+00:00", "meta": {"OBJECT_NAME": "STARLINK-36145", "OBJECT_ID": "2025-288AA", "EPOCH": "2025-12-23T22:00:01.999584", "MEAN_MOTION": 15.71210697, "ECCENTRICITY": 0.00013254, "INCLINATION": 43.0008, "RA_OF_ASC_NODE": 98.7771, "ARG_OF_PERICENTER": 285.2406, "MEAN_ANOMALY": 75.2379, "EPHEMERIS_TYPE": 0, "CLASSIFICATION_TYPE": "U", "NORAD_CAT_ID": 66983, "ELEMENT_SET_NO": 999, "REV_AT_EPOCH": 362, "BSTAR": -0.01687621, "MEAN_MOTION_DOT": -0.01947069, "MEAN_MOTION_DDOT": 0}, "tle": {"line1": "1 66983U 25288AA  25357.91668981 -.01947069  00000+0 -16876-1 0  9993", "line2": "2 66983  43.0008  98.7771 0001325 285.2406  75.2379 15.71210697  3629"}}, "geometry": {"type": "Point", "coordinates": [140.99863805317545, 33.00752994645109]}}, {"type": "Feature", "properties": {"norad_id": 66984, "name": "STARLINK-35591", "group": "last-30-days", "lat": 32.049694315351225, "lon": 139.01995800920355, "alt_km": 354.9557887701885, "timestamp": "2025-12-24T05:51:18.328010+00:00", "meta": {"OBJECT_NAME": "STARLINK-35591", "OBJECT_ID": "2025-288AB", "EPOCH": "2025-12-23T22:00:01.999584", "MEAN_MOTION": 15.71238249, "ECCENTRICITY": 0.00015723, "INCLINATION": 43.0005, "RA_OF_ASC_NODE": 98.7818, "ARG_OF_PERICENTER": 279.0056, "MEAN_ANOMALY": 79.5184, "EPHEMERIS_TYPE": 0, "CLASSIFICATION_TYPE": "U", "NORAD_CAT_ID": 66984, "ELEMENT_SET_NO": 999, "REV_AT_EPOCH": 362, "BSTAR": -0.016940976, "MEAN_MOTION_DOT": -0.019559, "MEAN_MOTION_DDOT": 0}, "tle": {"line1": "1 66984U 25288AB  25357.91668981 -.01955900  00000+0 -16941-1 0  9990", "line2": "2 66984  43.0005  98.7818 0001572 279.0056  79.5184 15.71238249  3629"}}, "geometry": {"type": "Point", "coordinates": [139.01995800920355, 32.049694315351225]}}, {"type": "Feature", "properties": {"norad_id": 66985, "name": "STARLINK-36103", "group": "last-30-days", "lat": 33.9258892424308, "lon": 143.00322393758864, "alt_km": 354.7299729972883, "timestamp": "2025-12-24T05:51:18.328020+00:00", "meta": {"OBJECT_NAME": "STARLINK-36103", "OBJECT_ID": "2025-288AC", "EPOCH": "2025-12-23T22:00:01.999584", "MEAN_MOTION": 15.71239273, "ECCENTRICITY": 0.00016066, "INCLINATION": 43.0008, "RA_OF_ASC_NODE": 98.7718, "ARG_OF_PERICENTER": 279.226, "MEAN_ANOMALY": 83.132, "EPHEMERIS_TYPE": 0, "CLASSIFICATION_TYPE": "U", "NORAD_CAT_ID": 66985, "ELEMENT_SET_NO": 999, "REV_AT_EPOCH": 362, "BSTAR": -0.016949437, "MEAN_MOTION_DOT": -0.01956866, "MEAN_MOTION_DDOT": 0}, "tle": {"line1": "1 66985U 25288AC  25357.91668981 -.01956866  00000+0 -16949-1 0  9991", "line2": "2 66985  43.0008  98.7718 0001606 279.2260  83.1320 15.71239273  3620"}}, "geometry": {"type": "Point", "coordinates": [143.00322393758864, 33.9258892424308]}}, {"type": "Feature", "properties": {"norad_id": 66986, "name": "STARLINK-36135", "group": "last-30-days", "lat": 34.81410601730788, "lon": 145.05873263225504, "alt_km": 354.60207504862774, "timestamp": "2025-12-24T05:51:18.328042+00:00", "meta": {"OBJECT_NAME": "STARLINK-36135", "OBJECT_ID": "2025-288AD", "EPOCH": "2025-12-23T22:00:01.999584", "MEAN_MOTION": 15.71237675, "ECCENTRICITY": 0.0001637, "INCLINATION": 43.0005, "RA_OF_ASC_NODE": 98.766, "ARG_OF_PERICENTER": 280.9481, "MEAN_ANOMALY": 83.3275, "EPHEMERIS_TYPE": 0, "CLASSIFICATION_TYPE": "U", "NORAD_CAT_ID": 66986, "ELEMENT_SET_NO": 999, "REV_AT_EPOCH": 362, "BSTAR": -0.016930938, "MEAN_MOTION_DOT": -0.01954885, "MEAN_MOTION_DDOT": 0}, "tle": {"line1": "1 66986U 25288AD  25357.91668981 -.01954885  00000+0 -16931-1 0  9992", "line2": "2 66986  43.0005  98.7660 0001637 280.9481  83.3275 15.71237675  3627"}}, "geometry": {"type": "Point", "coordinates": [145.05873263225504, 34.81410601730788]}}, {"type": "Feature", "properties": {"norad_id": 66987, "name": "STARLINK-36147", "group": "last-30-days", "lat": 35.66642528196765, "lon": 147.15901900873988, "alt_km": 354.43101903203933, "timestamp": "2025-12-24T05:51:18.328052+00:00", "meta": {"OBJECT_NAME": "STARLINK-36147", "OBJECT_ID": "2025-288AE", "EPOCH": "2025-12-23T22:00:01.999584", "MEAN_MOTION": 15.7124624, "ECCENTRICITY": 0.00015313, "INCLINATION": 43.0006, "RA_OF_ASC_NODE": 98.7629, "ARG_OF_PERICENTER": 281.7489, "MEAN_ANOMALY": 84.4383, "EPHEMERIS_TYPE": 0, "CLASSIFICATION_TYPE": "U", "NORAD_CAT_ID": 66987, "ELEMENT_SET_NO": 999, "REV_AT_EPOCH": 362, "BSTAR": -0.017033813, "MEAN_MOTION_DOT": -0.01965927, "MEAN_MOTION_DDOT": 0}, "tle": {"line1": "1 66987U 25288AE  25357.91668981 -.01965927  00000+0 -17034-1 0  9997", "line2": "2 66987  43.0006  98.7629 0001531 281.7489  84.4383 15.71246240  3624"}}, "geometry": {"type": "Point", "coordinates": [147.15901900873988, 35.66642528196765]}}, {"type": "Feature", "properties": {"norad_id": 66988, "name": "YAOGAN-47", "group": "last-30-days", "lat": 38.08526951484019, "lon": 57.446021022424276, "alt_km": 492.91099283509266, "timestamp": "2025-12-24T05:51:18.328062+00:00", "meta": {"OBJECT_NAME": "YAOGAN-47", "OBJECT_ID": "2025-289A", "EPOCH": "2025-12-20T02:21:43.539840", "MEAN_MOTION": 15.23243112, "ECCENTRICITY": 6.467e-05, "INCLINATION": 97.5265, "RA_OF_ASC_NODE": 59.2376, "ARG_OF_PERICENTER": 91.4531, "MEAN_ANOMALY": 268.678, "EPHEMERIS_TYPE": 0, "CLASSIFICATION_TYPE": "U", "NORAD_CAT_ID": 66988, "ELEMENT_SET_NO": 999, "REV_AT_EPOCH": 166, "BSTAR": 0.00010945697, "MEAN_MOTION_DOT": 2.52e-05, "MEAN_MOTION_DDOT": 0}, "tle": {"line1": "1 66988U 25289A   25354.09842060  .00002520  00000+0  10946-3 0  9992", "line2": "2 66988  97.5265  59.2376 0000646  91.4531 268.6780 15.23243112  1668"}}, "geometry": {"type": "Point", "coordinates": [57.446021022424276, 38.08526951484019]}}]}